[{"OBJECT_NAME":"PIESAT-2 09","OBJECT_ID":"2024-241A","EPOCH":"2026-03-09T23:58:51.117600","MEAN_MOTION":15.13443879,"ECCENTRICITY":0.00016869,"INCLINATION":97.524,"RA_OF_ASC_NODE":17.815,"ARG_OF_PERICENTER":93.7737,"MEAN_ANOMALY":266.3687,"EPHEMERIS_TYPE":0,"CLASSIFICATION_TYPE":"U","NORAD_CAT_ID":62333,"ELEMENT_SET_NO":999,"REV_AT_EPOCH":6779,"BSTAR":0.00033496992,"MEAN_MOTION_DOT":5.923e-5,"MEAN_MOTION_DDOT":0},{"OBJECT_NAME":"SHIJIAN-30B (SJ-30B)","OBJECT_ID":"2025-266B","EPOCH":"2026-03-09T22:16:30.653184","MEAN_MOTION":15.15274975,"ECCENTRICITY":0.0009234,"INCLINATION":51.7956,"RA_OF_ASC_NODE":284.3547,"ARG_OF_PERICENTER":294.0763,"MEAN_ANOMALY":65.9247,"EPHEMERIS_TYPE":0,"CLASSIFICATION_TYPE":"U","NORAD_CAT_ID":66546,"ELEMENT_SET_NO":999,"REV_AT_EPOCH":1680,"BSTAR":0.00057385906,"MEAN_MOTION_DOT":0.00010651,"MEAN_MOTION_DDOT":0}]
